ORBCOMM FM24 [-]        
1 25478U 98053D   24088.61363656  .00002488  00000+0  90683-3 0  9999
2 25478  45.0069 217.3467 0002316 189.6017 170.4786 14.35433306333369
ORBCOMM FM25 [-]        
1 25479U 98053E   24088.44014702  .00002084  00000+0  76774-3 0  9993
2 25479  45.0058 216.4067 0004868 185.7151 174.3641 14.35416994333631
ORBCOMM FM26 [-]        
1 25480U 98053F   24088.43046153  .00002145  00000+0  79699-3 0  9996
2 25480  45.0056 210.3941 0007122 200.4591 159.5971 14.34891802333572
ORBCOMM FM27 [+]        
1 25481U 98053G   24088.49734138  .00002067  00000+0  76211-3 0  9990
2 25481  45.0044 216.4012 0001414 229.4163 130.6562 14.35395149333570
ORBCOMM FM28 [-]        
1 25482U 98053H   24088.49711515  .00002012  00000+0  73653-3 0  9992
2 25482  45.0041 155.0158 0005793 234.0659 125.9651 14.35844001334240
ORBCOMM FM30 [-]        
1 25980U 99065A   24088.53582425  .00002257  00000+0  83366-3 0  9993
2 25980  45.0328  35.3836 0007529 300.9544  59.0563 14.35033028270910
ORBCOMM FM31 [-]        
1 25981U 99065B   24088.57109578  .00001973  00000+0  73496-3 0  9999
2 25981  45.0241  28.9407 0004679 321.6710  38.3804 14.35040395269949
ORBCOMM FM32 [+]        
1 25982U 99065C   24088.59145351  .00001937  00000+0  73719-3 0  9999
2 25982  45.0167  42.3390 0007230 322.4055  37.6286 14.34009752270584
